NORAD_CAT_ID,OBJECT_NAME,OBJECT_TYPE,EPOCH,MEAN_MOTION,ECCENTRICITY,INCLINATION,RA_OF_ASC_NODE,ARG_OF_PERICENTER,MEAN_ANOMALY,BSTAR,MEAN_MOTION_DOT,MEAN_MOTION_DDOT,TLE_LINE0,TLE_LINE1,TLE_LINE2,SEMIMAJOR_AXIS,PERIOD,APOGEE,PERIGEE,DECAYED
54096.0,STARLINK-5188,PAYLOAD,2023-05-31 11:01:09,15.08840815,0.0001071,53.2156,202.4796,86.1402,273.9713,7.4325e-05,8.95e-06,0.0,0 STARLINK-5188,1 54096U 22136AX  23151.45914351  .00000895  00000-0  74325-4 0  9999,2 54096  53.2156 202.4796 0001071  86.1402 273.9713 15.08840815 34490,6917.878,95.438,540.484,539.002,0.0
54096.0,STARLINK-5188,PAYLOAD,2023-05-31 20:33:28,15.08839741,0.0001074,53.2156,200.6952,83.6472,276.4643,7.3669e-05,8.85e-06,0.0,0 STARLINK-5188,1 54096U 22136AX  23151.85658435  .00000885  00000-0  73669-4 0  9990,2 54096  53.2156 200.6952 0001074  83.6472 276.4643 15.08839741 34087,6917.881,95.438,540.489,539.003,0.0
54096.0,STARLINK-5188,PAYLOAD,2023-06-01 10:51:57,15.088408,0.0001087,53.2154,198.0189,84.0099,276.1017,0.00011179,1.492e-05,0.0,0 STARLINK-5188,1 54096U 22136AX  23152.45274367  .00001492  00000-0  11179-3 0  9997,2 54096  53.2154 198.0189 0001087  84.0099 276.1017 15.08840800 34171,6917.878,95.438,540.495,538.991,0.0
54096.0,STARLINK-5188,PAYLOAD,2023-06-01 20:24:15,15.08841862,0.0001135,53.2158,196.2349,82.2644,277.8476,7.4469e-05,8.98e-06,0.0,0 STARLINK-5188,1 54096U 22136AX  23152.85018414  .00000898  00000-0  74469-4 0  9991,2 54096  53.2158 196.2349 0001135  82.2644 277.8476 15.08841862 34708,6917.875,95.437,540.525,538.955,0.0
54096.0,STARLINK-5188,PAYLOAD,2023-06-02 12:18:07,15.08842321,0.0001261,53.2162,193.2619,80.7567,279.3568,5.5242e-05,5.91e-06,0.0,0 STARLINK-5188,1 54096U 22136AX  23153.51258467  .00000591  00000-0  55242-4 0  9997,2 54096  53.2162 193.2619 0001261  80.7567 279.3568 15.08842321 34336,6917.873,95.437,540.611,538.866,0.0
54096.0,STARLINK-5188,PAYLOAD,2023-06-03 08:58:08,15.08838998,0.0001142,53.2154,189.3948,90.3424,269.7699,2.0128e-05,3.3e-07,0.0,0 STARLINK-5188,1 54096U 22136AX  23154.37370702  .00000033  00000-0  20128-4 0  9995,2 54096  53.2154 189.3948 0001142  90.3424 269.7699 15.08838998 34934,6917.883,95.438,540.538,538.958,0.0
54096.0,STARLINK-5188,PAYLOAD,2023-06-03 12:08:54,15.08839157,0.0001142,53.2154,188.7999,90.9875,269.1248,2.0257e-05,3.5e-07,0.0,0 STARLINK-5188,1 54096U 22136AX  23154.50618666  .00000035  00000-0  20257-4 0  9999,2 54096  53.2154 188.7999 0001142  90.9875 269.1248 15.08839157 34481,6917.883,95.438,540.538,538.958,0.0
54096.0,STARLINK-5188,PAYLOAD,2023-06-04 08:48:55,15.08833515,0.0001069,53.2155,184.9335,97.8421,262.2692,-1.7847e-05,-5.72e-06,0.0,0 STARLINK-5188,1 54096U 22136AX  23155.36731177 -.00000572  00000-0 -17847-4 0  9996,2 54096  53.2155 184.9335 0001069  97.8421 262.2692 15.08833515 35081,6917.9,95.438,540.505,539.026,0.0
54096.0,STARLINK-5188,PAYLOAD,2023-06-05 05:28:56,15.08834801,0.0001053,53.2156,181.0682,96.709,263.4022,2.7376e-05,1.48e-06,0.0,0 STARLINK-5188,1 54096U 22136AX  23156.22843218  .00000148  00000-0  27376-4 0  9997,2 54096  53.2156 181.0682 0001053  96.7090 263.4022 15.08834801 34749,6917.896,95.438,540.49,539.033,0.0
54096.0,STARLINK-5188,PAYLOAD,2023-06-05 18:12:01,15.08838459,0.0001039,53.2156,178.6894,89.8379,270.2732,4.7145e-05,4.63e-06,0.0,0 STARLINK-5188,1 54096U 22136AX  23156.75835062  .00000463  00000-0  47145-4 0  9999,2 54096  53.2156 178.6894 0001039  89.8379 270.2732 15.08838459 34829,6917.885,95.438,540.469,539.031,0.0
54096.0,STARLINK-5188,PAYLOAD,2023-06-06 10:05:52,15.08838178,0.0001076,53.2153,175.7158,87.032,273.0795,7.8776e-05,9.66e-06,0.0,0 STARLINK-5188,1 54096U 22136AX  23157.42075119  .00000966  00000-0  78776-4 0  9995,2 54096  53.2153 175.7158 0001076  87.0320 273.0795 15.08838178 34923,6917.886,95.438,540.495,539.007,0.0
54096.0,STARLINK-5188,PAYLOAD,2023-06-06 22:48:58,15.08835446,0.0001086,53.2153,173.3368,88.4055,271.7062,3.3355e-05,2.43e-06,0.0,0 STARLINK-5188,1 54096U 22136AX  23157.95067600  .00000243  00000-0  33355-4 0  9991,2 54096  53.2153 173.3368 0001086  88.4055 271.7062 15.08835446 35479,6917.894,95.438,540.511,539.008,0.0
54096.0,STARLINK-5188,PAYLOAD,2023-06-07 09:56:40,15.0883643,0.0001112,53.2153,171.2556,82.7016,277.4103,3.3513e-05,2.46e-06,0.0,0 STARLINK-5188,1 54096U 22136AX  23158.41435681  .00000246  00000-0  33513-4 0  9990,2 54096  53.2153 171.2556 0001112  82.7016 277.4103 15.08836430 35078,6917.891,95.438,540.526,538.987,0.0
54096.0,STARLINK-5188,PAYLOAD,2023-06-07 17:53:36,15.08838781,0.0001137,53.2154,169.769,81.9812,278.131,2.3397e-05,8.5e-07,0.0,0 STARLINK-5188,1 54096U 22136AX  23158.74555635  .00000085  00000-0  23397-4 0  9998,2 54096  53.2154 169.7690 0001137  81.9812 278.1310 15.08838781 35127,6917.884,95.438,540.536,538.963,0.0
54096.0,STARLINK-5188,PAYLOAD,2023-06-08 08:12:04,15.08841831,0.0001122,53.2151,167.0928,86.9445,273.1675,4.5599e-05,4.38e-06,0.0,0 STARLINK-5188,1 54096U 22136AX  23159.34171367  .00000438  00000-0  45599-4 0  9991,2 54096  53.2151 167.0928 0001122  86.9445 273.1675 15.08841831 35680,6917.875,95.437,540.516,538.964,0.0
54096.0,STARLINK-5188,PAYLOAD,2023-06-09 06:27:27,15.08841657,0.0001122,53.2152,162.9295,81.4581,278.6538,9.1155e-05,1.163e-05,0.0,0 STARLINK-5188,1 54096U 22136AX  23160.26907201  .00001163  00000-0  91155-4 0  9993,2 54096  53.2152 162.9295 0001122  81.4581 278.6538 15.08841657 35351,6917.875,95.437,540.517,538.964,0.0
54096.0,STARLINK-5188,PAYLOAD,2023-06-09 17:35:09,15.08841323,0.0001122,53.2151,160.8478,81.1793,278.9327,5.7242e-05,6.23e-06,0.0,0 STARLINK-5188,1 54096U 22136AX  23160.73275266  .00000623  00000-0  57242-4 0  9993,2 54096  53.2151 160.8478 0001122  81.1793 278.9327 15.08841323 35890,6917.876,95.437,540.518,538.965,0.0
54096.0,STARLINK-5188,PAYLOAD,2023-06-10 11:04:24,15.08845012,0.0001261,53.2152,157.5767,88.1825,271.9311,-3.9866e-05,-9.22e-06,0.0,0 STARLINK-5188,1 54096U 22136AX  23161.46139289 -.00000922  00000-0 -39866-4 0  9994,2 54096  53.2152 157.5767 0001261  88.1825 271.9311 15.08845012 35538,6917.865,95.437,540.602,538.858,0.0
54096.0,STARLINK-5188,PAYLOAD,2023-06-11 06:09:02,15.08841565,0.0001176,53.2153,154.0081,83.8651,276.2475,9.136e-06,-1.42e-06,0.0,0 STARLINK-5188,1 54096U 22136AX  23162.25627369 -.00000142  00000-0  91360-5 0  9994,2 54096  53.2153 154.0081 0001176  83.8651 276.2475 15.08841565 36128,6917.876,95.437,540.554,538.927,0.0
54096.0,STARLINK-5188,PAYLOAD,2023-06-11 10:55:11,15.08842712,0.0001217,53.2153,153.1161,85.7291,274.384,3.9804e-05,3.46e-06,0.0,0 STARLINK-5188,1 54096U 22136AX  23162.45499194  .00000346  00000-0  39804-4 0  9998,2 54096  53.2153 153.1161 0001217  85.7291 274.3840 15.08842712 35684,6917.872,95.437,540.579,538.895,0.0
54096.0,STARLINK-5188,PAYLOAD,2023-06-12 05:59:49,15.08837211,0.0001205,53.2154,149.5473,85.0101,275.1028,4.2432e-05,3.87e-06,0.0,0 STARLINK-5188,1 54096U 22136AX  23163.24987560  .00000387  00000-0  42432-4 0  9991,2 54096  53.2154 149.5473 0001205  85.0101 275.1028 15.08837211 35809,6917.889,95.438,540.588,538.92,0.0
54096.0,STARLINK-5188,PAYLOAD,2023-06-12 15:32:08,15.08837193,0.0001221,53.2157,147.7634,84.6422,275.4709,3.1681e-05,2.16e-06,0.0,0 STARLINK-5188,1 54096U 22136AX  23163.64731661  .00000216  00000-0  31681-4 0  9999,2 54096  53.2157 147.7634 0001221  84.6422 275.4709 15.08837193 36337,6917.889,95.438,540.599,538.909,0.0
54096.0,STARLINK-5188,PAYLOAD,2023-06-13 09:01:22,15.08839421,0.0001257,53.216,144.4925,84.6594,275.4542,2.7988e-05,1.58e-06,0.0,0 STARLINK-5188,1 54096U 22136AX  23164.37595629  .00000158  00000-0  27988-4 0  9992,2 54096  53.2160 144.4925 0001257  84.6594 275.4542 15.08839421 35977,6917.882,95.438,540.617,538.878,0.0
54096.0,STARLINK-5188,PAYLOAD,2023-06-14 08:52:09,15.0883774,0.0001249,53.2161,140.0316,83.1052,277.0082,2.1248e-05,5e-07,0.0,0 STARLINK-5188,1 54096U 22136AX  23165.36955912  .00000050  00000-0  21248-4 0  9991,2 54096  53.2161 140.0316 0001249  83.1052 277.0082 15.08837740 36596,6917.887,95.438,540.616,538.888,0.0
54096.0,STARLINK-5188,PAYLOAD,2023-06-14 15:13:42,15.08836652,0.0001255,53.2163,138.8422,82.9986,277.1149,2.7329e-05,1.47e-06,0.0,0 STARLINK-5188,1 54096U 22136AX  23165.63452003  .00000147  00000-0  27329-4 0  9997,2 54096  53.2163 138.8422 0001255  82.9986 277.1149 15.08836652 36160,6917.891,95.438,540.624,538.887,0.0
54096.0,STARLINK-5188,PAYLOAD,2023-06-15 02:21:24,15.08831986,0.0001257,53.2156,136.7612,89.8209,270.2927,-1.3677e-06,-3.1e-06,0.0,0 STARLINK-5188,1 54096U 22136AX  23166.09820530 -.00000310  00000-0 -13677-5 0  9998,2 54096  53.2156 136.7612 0001257  89.8209 270.2927 15.08831986 36709,6917.905,95.438,540.639,538.9,0.0
54096.0,STARLINK-5188,PAYLOAD,2023-06-15 08:42:57,15.08835519,0.0001242,53.2156,135.5716,87.5188,272.5947,1.4625e-05,-5.5e-07,0.0,0 STARLINK-5188,1 54096U 22136AX  23166.36316347 -.00000055  00000-0  14625-4 0  9992,2 54096  53.2156 135.5716 0001242  87.5188 272.5947 15.08835519 36271,6917.894,95.438,540.618,538.9,0.0
54096.0,STARLINK-5188,PAYLOAD,2023-06-16 06:58:20,15.08846101,0.0001266,53.2157,131.4085,87.5591,272.5546,7.9856e-05,9.83e-06,0.0,0 STARLINK-5188,1 54096U 22136AX  23167.29051620  .00000983  00000-0  79856-4 0  9991,2 54096  53.2157 131.4085 0001266  87.5591 272.5546 15.08846101 36881,6917.862,95.437,540.603,538.851,0.0
54096.0,STARLINK-5188,PAYLOAD,2023-06-16 14:55:16,15.08840727,0.0001201,53.2155,129.9212,87.1698,272.9431,4.0227e-05,3.52e-06,0.0,0 STARLINK-5188,1 54096U 22136AX  23167.62172025  .00000352  00000-0  40227-4 0  9991,2 54096  53.2155 129.9212 0001201  87.1698 272.9431 15.08840727 36937,6917.878,95.438,540.574,538.912,0.0
54096.0,STARLINK-5188,PAYLOAD,2023-06-17 03:38:21,15.08838597,0.000123,53.2156,127.5421,85.7418,274.3714,8.9554e-05,1.138e-05,0.0,0 STARLINK-5188,1 54096U 22136AX  23168.15164040  .00001138  00000-0  89554-4 0  9997,2 54096  53.2156 127.5421 0001230  85.7418 274.3714 15.08838597 36549,6917.885,95.438,540.601,538.899,0.0
